P/2023 V6 (PANSTARRS),e,3.9749,189.9589,193.5292,5.323415,0.0802451,0.17713948,44.5776,06/21.0/2024,2000,g 11.5,4.0
# From MPEC 2024-GJ3
C/2023 X1 (Leonard),e,110.5872,137.0118,321.4691,159.6448,0.0004886,0.99404605,0.0000,10/18.0774/2023,2000,g 13.5,3.2
# From MPEC 2024-DC6
C/2023 X2 (Lemmon),h,12/26.2633/2025,76.9975,66.3131,64.5107,1.001767,5.097453,2000,8.5,3.2
# From MPEC 2024-A43
P/2023 X3 (PANSTARRS),e,4.4834,62.0132,40.8172,4.246251,0.1126408,0.28639836,6.7644,06/21.0/2024,2000,g 15.5,4.0
# From MPEC 2024-JU4
C/2023 X4 (Hogan),e,11.5948,28.7656,100.5440,9.910935,0.0315887,0.63091093,0.8600,06/21.0/2024,2000,g 12.0,4.0
# From MPEC 2024-DA2
C/2023 X7 (PANSTARRS),h,05/14.8834/2025,69.0548,119.2085,354.3469,1.002323,4.821038,2000,9.0,4.0
# From MPEC 2024-JU4
P/2023 Y1 (Gibbs),e,6.3841,78.8565,51.4417,3.748539,0.1358035,0.44516193,27.7341,06/21.0/2024,2000,g 17.0,4.0
# From MPEC 2024-F34
P/2023 Y2 (Gibbs),e,6.9928,79.2291,16.8316,3.745171,0.1359868,0.39223464,42.9822,06/21.0/2024,2000,g 15.5,4.0
# From MPEC 2024-JU4
C/2024 A1 (ATLAS),h,06/13.6832/2025,94.4470,112.1406,353.2998,1.001347,3.875703,2000,7.0,4.0
# From MPEC 2024-JU4
C/2024 A2 (ATLAS),e,119.1113,78.1672,295.5809,32.32862,0.0053620,0.94179678,0.2847,06/21.0/2024,2000,g 12.5,4.0
# From MPEC 2024-D33
C/2024 B1 (Lemmon),h,10/07.6996/2024,70.9033,79.1873,66.2079,1.000960,1.633653,2000,13.0,4.0
# From MPEC 2024-GJ3
C/2024 B2 (Lemmon),e,99.8386,294.3785,130.3235,5063,0.0000027,0.99919486,0.0000,10/06.0522/2023,2000,g 11.5,4.0
# From MPEC 2024-M41
C/2024 C1 (PANSTARRS),e,14.2268,83.8114,94.4655,10.56029,0.0287204,0.58211988,357.9643,06/21.0/2024,2000,g 11.5,4.0
# From MPEC 2024-JU4
C/2024 C2 (PANSTARRS),e,27.2844,66.4420,87.5335,16.18774,0.0151330,0.44455190,356.0308,06/21.0/2024,2000,g  6.0,4.0
# From MPEC 2024-GJ3
C/2024 C3 (PANSTARRS),e,22.4642,359.7089,159.6463,11.64706,0.0247959,0.42366631,5.6036,06/21.0/2024,2000,g  9.0,4.0
# From MPEC 2024-M41
C/2024 C4 (ATLAS),e,79.2871,220.6848,321.5215,83.99850,0.0012803,0.98248511,0.0000,01/30.1971/2024,2000,g 14.5,4.0
# From MPEC 2024-EG1
A/2024 D1,e,132.4530,179.6730,125.7312,1806,0.0000128,0.99628850,0.0000,12/04.9439/2027,2000,g 11.0,2.0
# From MPEC 2024-M41
C/2024 E1 (Wierzchos),h,01/20.7374/2026,75.2340,108.1096,243.6557,1.000018,0.565241,2000,7.0,4.0
# From MPEC 2024-JU4
C/2024 E2 (Bok),e,155.6493,135.6517,358.0494,51.77900,0.0026453,0.85144178,0.6375,06/21.0/2024,2000,g  8.0,4.0
# From MPEC 2024-JU4
P/2024 F1 (PANSTARRS),e,7.0054,251.5422,229.5416,3.442657,0.1542991,0.45983663,36.9320,06/21.0/2024,2000,g 16.0,4.0
# From MPEC 2024-M41
C/2024 F2 (PANSTARRS),e,13.7406,138.9507,112.9097,9.950345,0.0314012,0.60118646,358.8016,06/21.0/2024,2000,g 11.0,4.0
# From MPEC 2024-LE0
P/2024 FG9 (Nanshan-Hahn),e,1.7390,253.9769,245.2991,2.652776,0.2281147,0.41045769,7.3487,06/21.0/2024,2000,g 14.0,4.0
# From MPEC 2024-M41
C/2024 G1 (Wierzchos),e,95.4025,30.5887,128.2203,125.1603,0.0007039,0.96859531,359.9141,06/21.0/2024,2000,g 10.0,4.0
# From MPEC 2024-JU4
C/2024 G2 (ATLAS),e,122.1330,171.3911,328.7912,894.6592,0.0000368,0.99402500,0.0000,06/13.8005/2025,2000,g  7.0,4.0
# From MPEC 2024-M41
C/2024 G3 (ATLAS),h,01/13.4295/2025,116.8535,220.3282,108.1242,1.000010,0.093491,2000,9.0,4.0
# From MPEC 2024-LE0
C/2024 G4 (PANSTARRS),e,33.0283,153.0024,131.4317,3083,0.0000058,0.99841094,0.0000,03/21.7876/2026,2000,g  8.0,4.0
# From MPEC 2024-JC6
C/2024 G5 (Leonard),e,50.3895,316.3988,209.5597,537.5678,0.0000791,0.99450698,0.0000,09/06.9907/2024,2000,g 13.0,4.0
# From MPEC 2024-JD4
C/2024 G6 (ATLAS),h,02/20.7083/2026,120.4536,250.9543,23.3833,1.000467,6.434868,2000,5.5,4.0
# From MPEC 2024-K41
C/2024 G7 (ATLAS),e,131.5167,191.9261,289.4805,16494,0.0000005,0.99963424,0.0000,02/08.8183/2025,2000,g  7.0,4.0
# From MPEC 2024-JU4
P/2024 J1 (PANSTARRS),e,13.1580,321.9544,200.3354,3.807650,0.1326535,0.30746326,29.5599,06/21.0/2024,2000,g 14.5,4.0
# From MPEC 2024-M41
C/2024 J2 (Wierzchos),e,79.3024,189.0675,143.1499,155.5577,0.0005080,0.98836156,0.0000,03/19.6709/2025,2000,g 11.5,4.0
# From MPEC 2024-M41
C/2024 J3 (ATLAS),e,75.5651,285.9844,74.1255,1055,0.0000288,0.99633208,0.0000,11/27.4442/2026,2000,g  5.0,4.0
# From MPEC 2024-M41
C/2024 J4 (Lemmon),e,117.5361,19.3065,127.8810,1288,0.0000213,0.99557769,0.0000,04/26.4044/2025,2000,g  8.0,4.0
# From MPEC 2024-M41
C/2024 L1 (PANSTARRS),e,99.1773,45.1346,171.8172,11.46072,0.0254031,0.53333717,352.2161,06/21.0/2024,2000,g 10.0,4.0
# From MPEC 2024-M24
C/2024 L2 (PANSTARRS),e,139.3488,266.4331,344.7720,176.8574,0.0004191,0.95283761,359.8565,06/21.0/2024,2000,g  7.5,3.2
# From  98, 1083
1P/Halley,e,162.2070,59.6958,112.6091,17.86738,0.0130501,0.96695305,182.5465,06/21.0/2024,2000,g  4.0,6.0
# From MPEC 2024-L77
2P/Encke,e,11.3382,334.0158,187.2851,2.218444,0.2982850,0.84696017,72.3253,06/21.0/2024,2000,g 11.5,6.0
# From  76, 1135
3D/Biela,e,7.8876,276.1865,192.2853,3.539407,0.1480159,0.76746880,305.2011,06/21.0/2024,2000,g 11.0,6.0
# From  76, 1135
3D-A/Biela,e,7.2154,276.6877,192.1216,3.549844,0.1473636,0.76710503,335.8139,06/21.0/2024,2000,g 11.0,6.0
# From  76, 1135
3D-B/Biela,e,7.8797,276.2012,192.2462,3.540158,0.1479688,0.76776669,304.9410,06/21.0/2024,2000,g 11.0,6.0
# From MPEC 2023-FK0
4P/Faye,e,8.0074,192.9225,207.1051,3.828762,0.1315578,0.57670285,133.6471,06/21.0/2024,2000,g  8.0,6.0
# From  27, 116
5D/Brorsen,e,18.6265,94.9054,20.3025,3.158228,0.1756058,0.83772691,75.6605,06/21.0/2024,2000,g 10.5,6.0
# From MPEC 2022-WD2
6P/d'Arrest,e,19.5020,138.9497,178.0819,3.497488,0.1506849,0.61200567,151.8712,06/21.0/2024,2000,g  7.5,16.0
# From MPEC 2023-A50
7P/Pons-Winnecke,e,22.4310,93.2805,172.4700,3.405498,0.1568314,0.63971412,175.8375,06/21.0/2024,2000,g 10.0,6.0
# From MPEC 2022-HC2
8P/Tuttle,e,54.9695,270.1746,207.4723,5.704032,0.0723488,0.82050377,74.3694,06/21.0/2024,2000,g  8.0,8.0
# From MPEC 2024-AF0
9P/Tempel,e,10.9587,67.3900,183.2512,3.217930,0.1707415,0.50133130,142.1924,06/21.0/2024,2000,g  5.5,10.0
# From MPEC 2024-GJ3
10P/Tempel,e,12.0292,117.8078,195.5209,3.062824,0.1838743,0.53754107,218.0171,06/21.0/2024,2000,g  5.0,10.0
# From MPEC 2023-A50
11P/Tempel-Swift-LINEAR,e,14.4349,238.8651,168.0305,3.283618,0.1656438,0.57757892,215.6169,06/21.0/2024,2000,g 17.0,4.0
# From MPEC 2024-M41
12P/Pons-Brooks,e,74.1916,255.8555,198.9876,17.20677,0.0138088,0.95462241,0.8406,06/21.0/2024,2000,g  5.0,6.0
# From MPEC 2024-M41
13P/Olbers,e,44.6657,85.8476,64.4184,16.85138,0.0142479,0.93024503,359.8711,06/21.0/2024,2000,g  5.0,6.0
# From MPEC 2024-LE0
14P/Wolf,e,27.9239,202.0371,159.1730,4.257141,0.1122088,0.35691935,268.0141,06/21.0/2024,2000,g  5.5,12.0
# From MPEC 2022-ED3
15P/Finlay,e,6.7925,13.7407,347.8755,3.509979,0.1498813,0.71656071,160.9156,06/21.0/2024,2000,g 12.0,4.0
# From MPEC 2022-X67
16P/Brooks,e,3.0104,138.8489,245.3379,3.660939,0.1407069,0.48609391,163.1443,06/21.0/2024,2000,g  7.5,10.0
# From MPEC 2023-J29
17P/Holmes,e,19.0145,326.6233,24.6201,3.640128,0.1419153,0.42682558,172.7806,06/21.0/2024,2000,g 10.0,6.0
# From  19, 80
18D/Perrine-Mrkos,e,17.657,158.470,238.233,3.88208,0.128857,0.5895178,351.081,06/21.0/2024,2000,g  9.0,4.0
# From MPEC 2024-JU4
19P/Borrelly,e,29.3163,74.2154,351.9825,3.607776,0.1438284,0.63790742,125.1159,06/21.0/2024,2000,g  4.5,10.0
# From MPEC 2024-LE0
21P/Giacobini-Zinner,e,32.0519,195.3379,172.9208,3.492944,0.1509791,0.71113528,318.1269,06/21.0/2024,2000,g  9.0,6.0
# From MPEC 2024-L77
22P/Kopff,e,4.7580,120.5255,162.9081,3.429438,0.1551921,0.55167003,128.0600,06/21.0/2024,2000,g  3.0,10.4
# From MPC 14747
23P/Brorsen-Metcalf,e,19.3811,311.4859,129.6824,16.93985,0.0141364,0.97253653,0.0000,08/27.3075/1989,2000,g 10.0,6.0
# From MPC110085
24P/Schaumasse,e,11.5060,78.3753,58.3921,4.055912,0.1206622,0.70800381,291.6569,06/21.0/2024,2000,g  6.5,14.0
# From NK 378
25D/Neujmin 2,e,2.8062,280.0204,244.7701,3.223369,0.1703096,0.55104038,304.7673,06/21.0/2024,2000,g 12.5,6.0
# From MPEC 2024-LE0
26P/Grigg-Skjellerup,e,22.4329,211.5394,2.1404,3.015622,0.1882083,0.64058946,33.6260,06/21.0/2024,2000,g 12.0,16.0
# From MPC 78188
27P/Crommelin,e,29.4369,250.7065,195.8319,9.179301,0.0354397,0.91952740,166.9338,06/21.0/2024,2000,g 12.0,8.0
# From MPEC 2024-GJ3
28P/Neujmin,e,14.3020,346.3809,347.4765,6.983037,0.0534118,0.77310360,63.9767,06/21.0/2024,2000,g  8.5,6.0
# From MPEC 2024-LE0
29P/Schwassmann-Wachmann,e,9.3582,312.4061,52.0625,6.053851,0.0661693,0.04394920,124.0781,06/21.0/2024,2000,g  4.0,4.0
# From MPEC 2024-GJ3
30P/Reinmuth,e,8.0531,117.2361,9.4831,3.734880,0.1365492,0.51440282,352.1928,06/21.0/2024,2000,g  9.5,6.0
# From MPEC 2023-RF3
31P/Schwassmann-Wachmann,e,4.5496,114.1112,17.8262,4.232970,0.1131713,0.19297616,205.3012,06/21.0/2024,2000,g  5.0,8.0
# From MPEC 2024-L77
32P/ComasSola,e,9.9207,54.5298,54.6706,4.551933,0.1014870,0.55522138,6.2306,06/21.0/2024,2000,g  6.5,8.0
# From MPEC 2023-J29
33P/Daniel,e,22.2956,66.2834,20.3401,4.094910,0.1189426,0.45240056,342.9731,06/21.0/2024,2000,g 10.0,12.0
# From  9, 314
34D/Gale,e,10.5827,57.8676,218.0464,5.014068,0.0877847,0.75787849,290.1714,06/21.0/2024,2000,g  9.0,4.0
# From  15, 452
35P/Herschel-Rigollet,e,64.989,356.480,29.088,28.5389,0.006465,0.9744210,0.000,03/24.5960/2092,2000,g  9.0,4.0
# From MPEC 2023-RF3
36P/Whipple,e,9.9497,181.8396,201.1698,4.139643,0.1170199,0.26865134,173.1506,06/21.0/2024,2000,g  8.5,6.0
# From MPEC 2024-M41
37P/Forbes,e,8.9473,314.5513,330.0685,3.462972,0.1529433,0.53283074,342.8313,06/21.0/2024,2000,g 10.5,4.8
# From MPEC 2018-S50
38P/Stephan-Oterma,e,18.3993,77.8781,359.5347,11.25237,0.0261119,0.85980488,53.4453,06/21.0/2024,2000,g  3.5,12.0
# From MPEC 2024-AF0
39P/Oterma,e,1.6157,291.5699,109.7178,7.073009,0.0523960,0.19154740,16.6924,06/21.0/2024,2000,g  7.0,6.0
# From MPC100283
40P/Vaisala,e,11.5738,129.8108,51.1205,4.971363,0.0889182,0.63410324,314.8464,06/21.0/2024,2000,g  5.5,12.0
# From MPEC 2023-SQ0
41P/Tuttle-Giacobini-Kresak,e,9.2166,140.9741,62.2374,3.088291,0.1816045,0.65956331,117.4018,06/21.0/2024,2000,g 10.0,16.0
# From MPC 94283
